{
  "type": "FeatureCollection",
  "features": [
    {
      "type": "Feature",
      "properties": {
        "norad_id": 66618,
        "name": "STARLINK-35970",
        "group": "last-30-days",
        "lat": -12.06582961505888,
        "lon": -11.770567787023703,
        "alt_km": 421.21488014056376,
        "timestamp": "2025-12-18T14:52:06.780830+00:00",
        "meta_object_name": "STARLINK-35970",
        "meta_object_id": "2025-271B",
        "meta_epoch": "2025-12-18T06:17:22.301088",
        "meta_mean_motion": 15.49347181,
        "meta_eccentricity": 6.877e-05,
        "meta_inclination": 53.1593,
        "meta_ra_of_asc_node": 160.7171,
        "meta_arg_of_pericenter": 60.1734,
        "meta_mean_anomaly": 299.9343,
        "meta_ephemeris_type": 0,
        "meta_classification_type": "U",
        "meta_norad_cat_id": 66618,
        "meta_element_set_no": 999,
        "meta_rev_at_epoch": 506,
        "meta_bstar": 0.00059325698,
        "meta_mean_motion_dot": 0.00032729,
        "meta_mean_motion_ddot": 0,
        "tle_line1": "1 66618U 25271B   25352.26206367  .00032729  00000+0  59326-3 0  9993",
        "tle_line2": "2 66618  53.1593 160.7171 0000687  60.1734 299.9343 15.49347181  5063"
      },
      "geometry": {
        "type": "Point",
        "coordinates": [
          -11.770567787023703,
          -12.06582961505888
        ]
      }
    },
    {
      "type": "Feature",
      "properties": {
        "norad_id": 66619,
        "name": "STARLINK-35951",
        "group": "last-30-days",
        "lat": 23.888612616273207,
        "lon": -40.29182614141624,
        "alt_km": 415.67428106248735,
        "timestamp": "2025-12-18T14:52:06.780842+00:00",
        "meta_object_name": "STARLINK-35951",
        "meta_object_id": "2025-271C",
        "meta_epoch": "2025-12-18T04:56:14.648640",
        "meta_mean_motion": 15.49345027,
        "meta_eccentricity": 4.912e-05,
        "meta_inclination": 53.159,
        "meta_ra_of_asc_node": 161.0817,
        "meta_arg_of_pericenter": 65.7997,
        "meta_mean_anomaly": 294.3063,
        "meta_ephemeris_type": 0,
        "meta_classification_type": "U",
        "meta_norad_cat_id": 66619,
        "meta_element_set_no": 999,
        "meta_rev_at_epoch": 505,
        "meta_bstar": 0.0020150292,
        "meta_mean_motion_dot": 0.00113404,
        "meta_mean_motion_ddot": 0,
        "tle_line1": "1 66619U 25271C   25352.20572510  .00113404  00000+0  20150-2 0  9996",
        "tle_line2": "2 66619  53.1590 161.0817 0000491  65.7997 294.3063 15.49345027  5051"
      },
      "geometry": {
        "type": "Point",
        "coordinates": [
          -40.29182614141624,
          23.888612616273207
        ]
      }
    },
    {
      "type": "Feature",
      "properties": {
        "norad_id": 66620,
        "name": "STARLINK-35936",
        "group": "last-30-days",
        "lat": 28.22405011317494,
        "lon": -44.611772361513715,
        "alt_km": 415.0198510702321,
        "timestamp": "2025-12-18T14:52:06.780852+00:00",
        "meta_object_name": "STARLINK-35936",
        "meta_object_id": "2025-271D",
        "meta_epoch": "2025-12-18T06:30:37.138752",
        "meta_mean_motion": 15.49329114,
        "meta_eccentricity": 8.502e-05,
        "meta_inclination": 53.1601,
        "meta_ra_of_asc_node": 160.7823,
        "meta_arg_of_pericenter": 76.6318,
        "meta_mean_anomaly": 283.4786,
        "meta_ephemeris_type": 0,
        "meta_classification_type": "U",
        "meta_norad_cat_id": 66620,
        "meta_element_set_no": 999,
        "meta_rev_at_epoch": 506,
        "meta_bstar": 0.00071542612,
        "meta_mean_motion_dot": 0.00039571,
        "meta_mean_motion_ddot": 0,
        "tle_line1": "1 66620U 25271D   25352.27126318  .00039571  00000+0  71543-3 0  9991",
        "tle_line2": "2 66620  53.1601 160.7823 0000850  76.6318 283.4786 15.49329114  5067"
      },
      "geometry": {
        "type": "Point",
        "coordinates": [
          -44.611772361513715,
          28.22405011317494
        ]
      }
    },
    {
      "type": "Feature",
      "properties": {
        "norad_id": 66621,
        "name": "STARLINK-35847",
        "group": "last-30-days",
        "lat": -14.928775695007271,
        "lon": -9.471019040630996,
        "alt_km": 421.45294675650894,
        "timestamp": "2025-12-18T14:52:06.780862+00:00",
        "meta_object_name": "STARLINK-35847",
        "meta_object_id": "2025-271E",
        "meta_epoch": "2025-12-18T06:16:26.313024",
        "meta_mean_motion": 15.49353563,
        "meta_eccentricity": 9.456e-05,
        "meta_inclination": 53.1596,
        "meta_ra_of_asc_node": 160.7113,
        "meta_arg_of_pericenter": 77.4059,
        "meta_mean_anomaly": 282.7056,
        "meta_ephemeris_type": 0,
        "meta_classification_type": "U",
        "meta_norad_cat_id": 66621,
        "meta_element_set_no": 999,
        "meta_rev_at_epoch": 506,
        "meta_bstar": 0.00086958215,
        "meta_mean_motion_dot": 0.0004829,
        "meta_mean_motion_ddot": 0,
        "tle_line1": "1 66621U 25271E   25352.26141566  .00048290  00000+0  86958-3 0  9997",
        "tle_line2": "2 66621  53.1596 160.7113 0000945  77.4059 282.7056 15.49353563  5066"
      },
      "geometry": {
        "type": "Point",
        "coordinates": [
          -9.471019040630996,
          -14.928775695007271
        ]
      }
    },
    {
      "type": "Feature",
      "properties": {
        "norad_id": 66622,
        "name": "STARLINK-35950",
        "group": "last-30-days",
        "lat": 46.336097642839725,
        "lon": -72.59752696624254,
        "alt_km": 439.8502580423974,
        "timestamp": "2025-12-18T14:52:06.780874+00:00",
        "meta_object_name": "STARLINK-35950",
        "meta_object_id": "2025-271F",
        "meta_epoch": "2025-12-18T06:00:02.999808",
        "meta_mean_motion": 15.41653631,
        "meta_eccentricity": 0.00015776,
        "meta_inclination": 53.1602,
        "meta_ra_of_asc_node": 160.9153,
        "meta_arg_of_pericenter": 89.8358,
        "meta_mean_anomaly": 134.9054,
        "meta_ephemeris_type": 0,
        "meta_classification_type": "U",
        "meta_norad_cat_id": 66622,
        "meta_element_set_no": 999,
        "meta_rev_at_epoch": 512,
        "meta_bstar": -0.063008004,
        "meta_mean_motion_dot": -0.02397099,
        "meta_mean_motion_ddot": 0,
        "tle_line1": "1 66622U 25271F   25352.25003472 -.02397099  00000+0 -63008-1 0  9997",
        "tle_line2": "2 66622  53.1602 160.9153 0001577  89.8358 134.9054 15.41653631  5126"
      },
      "geometry": {
        "type": "Point",
        "coordinates": [
          -72.59752696624254,
          46.336097642839725
        ]
      }
    },
    {
      "type": "Feature",
      "properties": {
        "norad_id": 66623,
        "name": "STARLINK-35920",
        "group": "last-30-days",
        "lat": 45.81047622653005,
        "lon": -150.26350971951248,
        "alt_km": 440.5949934902419,
        "timestamp": "2025-12-18T14:52:06.780885+00:00",
        "meta_object_name": "STARLINK-35920",
        "meta_object_id": "2025-271G",
        "meta_epoch": "2025-12-18T06:00:02.999808",
        "meta_mean_motion": 15.39594449,
        "meta_eccentricity": 8.877e-05,
        "meta_inclination": 53.1598,
        "meta_ra_of_asc_node": 161.0128,
        "meta_arg_of_pericenter": 96.4168,
        "meta_mean_anomaly": 78.2111,
        "meta_ephemeris_type": 0,
        "meta_classification_type": "U",
        "meta_norad_cat_id": 66623,
        "meta_element_set_no": 999,
        "meta_rev_at_epoch": 512,
        "meta_bstar": 0.0010519091,
        "meta_mean_motion_dot": 0.00041872,
        "meta_mean_motion_ddot": 0,
        "tle_line1": "1 66623U 25271G   25352.25003472  .00041872  00000+0  10519-2 0  9999",
        "tle_line2": "2 66623  53.1598 161.0128 0000887  96.4168  78.2111 15.39594449  5123"
      },
      "geometry": {
        "type": "Point",
        "coordinates": [
          -150.26350971951248,
          45.81047622653005
        ]
      }
    },
    {
      "type": "Feature",
      "properties": {
        "norad_id": 66624,
        "name": "STARLINK-35927",
        "group": "last-30-days",
        "lat": 20.991268603208095,
        "lon": -37.62244394114569,
        "alt_km": 416.06205712365863,
        "timestamp": "2025-12-18T14:52:06.780897+00:00",
        "meta_object_name": "STARLINK-35927",
        "meta_object_id": "2025-271H",
        "meta_epoch": "2025-12-18T06:28:08.802912",
        "meta_mean_motion": 15.49344315,
        "meta_eccentricity": 8.36e-05,
        "meta_inclination": 53.1597,
        "meta_ra_of_asc_node": 160.7697,
        "meta_arg_of_pericenter": 82.8283,
        "meta_mean_anomaly": 277.2821,
        "meta_ephemeris_type": 0,
        "meta_classification_type": "U",
        "meta_norad_cat_id": 66624,
        "meta_element_set_no": 999,
        "meta_rev_at_epoch": 506,
        "meta_bstar": 0.0017346453,
        "meta_mean_motion_dot": 0.00097357,
        "meta_mean_motion_ddot": 0,
        "tle_line1": "1 66624U 25271H   25352.26954633  .00097357  00000+0  17346-2 0  9999",
        "tle_line2": "2 66624  53.1597 160.7697 0000836  82.8283 277.2821 15.49344315  5069"
      },
      "geometry": {
        "type": "Point",
        "coordinates": [
          -37.62244394114569,
          20.991268603208095
        ]
      }
    }
  ]
}